IRIDIUM 171             
1 43929U 19002H   26001.62387725  .00000137  00000+0  41910-4 0  9997
2 43929  86.3961  63.4908 0002395  93.0643 267.0827 14.34218209365084
IRIDIUM 170             
1 43930U 19002J   26001.57629208  .00001484  00000+0  23145-3 0  9993
2 43930  86.6073  63.2180 0002335  88.3363 271.8122 14.72236833374742
IRIDIUM 167             
1 43931U 19002K   26001.61753546  .00000012  00000+0 -27344-5 0  9996
2 43931  86.3945  63.2258 0002557  94.5633 265.5855 14.34217480365084
IRIDIUM 181             
1 56726U 23068S   26001.43858693  .00000738  00000+0  21335-3 0  9994
2 56726  86.4526 126.4999 0001808  83.4283 276.7124 14.43309098138387
IRIDIUM 177             
1 56727U 23068T   26001.61700223  .00000954  00000+0  12210-3 0  9992
2 56727  86.1950  47.8873 0002283  90.2020 269.9463 14.80213534141728
IRIDIUM 174             
1 56728U 23068U   26001.56395573  .00001363  00000+0  21228-3 0  9999
2 56728  86.6075  63.3538 0002149  91.9098 268.2365 14.72242448141503
IRIDIUM 178             
1 56729U 23068V   26001.26804415 -.00005066  00000+0 -67080-3 0  9999
2 56729  86.6526  95.1407 0001943  66.9593 293.1833 14.80247419141673
IRIDIUM 179             
1 56730U 23068W   26001.33033844  .00002827  00000+0  36866-3 0  9997
2 56730  86.6790 103.5984 0002434  93.3748 266.7752 14.80221169141685
